[
    {
        "Altitude(m)": 705236.1504579104,
        "Argument of Periapsis(deg)": 0.005695060593313534,
        "Eccentricity": 0.0,
        "Inclination(deg)": 45.0,
        "Latitude(deg)": 35.45516883708293,
        "Longitude(deg)": -140.27572524782224,
        "Mean Anomaly(deg)": 54.85750832374039,
        "RAAN(deg)": 274.9946240292709,
        "Satellite Name": "Constellation 1 1213",
        "Satellite Number": 1213,
        "Semi-Major Axis(m)": 7083131.272910544,
        "Time(s)": 95
    },
    {
        "Altitude(m)": 705242.0712084102,
        "Argument of Periapsis(deg)": 0.00575500859955894,
        "Eccentricity": 0.0,
        "Inclination(deg)": 45.0,
        "Latitude(deg)": 35.48556761194464,
        "Longitude(deg)": -140.21534772694037,
        "Mean Anomaly(deg)": 54.91820946399032,
        "RAAN(deg)": 274.9945674401053,
        "Satellite Name": "Constellation 1 1213",
        "Satellite Number": 1213,
        "Semi-Major Axis(m)": 7083131.272910544,
        "Time(s)": 96
    },
    {
        "Altitude(m)": 705247.989820995,
        "Argument of Periapsis(deg)": 0.005814956605804345,
        "Eccentricity": 0.0,
        "Inclination(deg)": 45.0,
        "Latitude(deg)": 35.515931757245504,
        "Longitude(deg)": -140.15492151551064,
        "Mean Anomaly(deg)": 54.978910604240205,
        "RAAN(deg)": 274.9945108509398,
        "Satellite Name": "Constellation 1 1213",
        "Satellite Number": 1213,
        "Semi-Major Axis(m)": 7083131.272910544,
        "Time(s)": 97
    },
    {
        "Altitude(m)": 705253.9062581902,
        "Argument of Periapsis(deg)": 0.00587490461204975,
        "Eccentricity": 0.0,
        "Inclination(deg)": 45.0,
        "Latitude(deg)": 35.54626120889213,
        "Longitude(deg)": -140.09444674597285,
        "Mean Anomaly(deg)": 55.039611744490095,
        "RAAN(deg)": 274.9944542617742,
        "Satellite Name": "Constellation 1 1213",
        "Satellite Number": 1213,
        "Semi-Major Axis(m)": 7083131.272910544,
        "Time(s)": 98
    },
    {
        "Altitude(m)": 705259.8204825413,
        "Argument of Periapsis(deg)": 0.005934852618295156,
        "Eccentricity": 0.0,
        "Inclination(deg)": 45.0,
        "Latitude(deg)": 35.57655590273024,
        "Longitude(deg)": -140.0339233828927,
        "Mean Anomaly(deg)": 55.10031288473998,
        "RAAN(deg)": 274.9943976726086,
        "Satellite Name": "Constellation 1 1213",
        "Satellite Number": 1213,
        "Semi-Major Axis(m)": 7083131.272910544,
        "Time(s)": 99
    },
    {
        "Altitude(m)": 705265.7324566197,
        "Argument of Periapsis(deg)": 0.005994800624540561,
        "Eccentricity": 0.0,
        "Inclination(deg)": 45.0,
        "Latitude(deg)": 35.6068157745452,
        "Longitude(deg)": -139.9733513910599,
        "Mean Anomaly(deg)": 55.16101402498992,
        "RAAN(deg)": 274.99434108344303,
        "Satellite Name": "Constellation 1 1213",
        "Satellite Number": 1213,
        "Semi-Major Axis(m)": 7083131.272910544,
        "Time(s)": 100
    },
    {
        "Altitude(m)": 705271.6421430318,
        "Argument of Periapsis(deg)": 0.006054748630785968,
        "Eccentricity": 0.0,
        "Inclination(deg)": 45.0,
        "Latitude(deg)": 35.63704076006222,
        "Longitude(deg)": -139.9127307354893,
        "Mean Anomaly(deg)": 55.2217151652398,
        "RAAN(deg)": 274.99428449427745,
        "Satellite Name": "Constellation 1 1213",
        "Satellite Number": 1213,
        "Semi-Major Axis(m)": 7083131.272910544,
        "Time(s)": 101
    },
    {
        "Altitude(m)": 705277.549504402,
        "Argument of Periapsis(deg)": 0.006114696637031373,
        "Eccentricity": 0.0,
        "Inclination(deg)": 45.0,
        "Latitude(deg)": 35.667230794946605,
        "Longitude(deg)": -139.85206138142252,
        "Mean Anomaly(deg)": 55.2824163054897,
        "RAAN(deg)": 274.9942279051119,
        "Satellite Name": "Constellation 1 1213",
        "Satellite Number": 1213,
        "Semi-Major Axis(m)": 7083131.272910544,
        "Time(s)": 102
    },
    {
        "Altitude(m)": 705283.4545033915,
        "Argument of Periapsis(deg)": 0.006174644643276778,
        "Eccentricity": 0.0,
        "Inclination(deg)": 45.0,
        "Latitude(deg)": 35.69738581480396,
        "Longitude(deg)": -139.7913432943289,
        "Mean Anomaly(deg)": 55.34311744573963,
        "RAAN(deg)": 274.99417131594635,
        "Satellite Name": "Constellation 1 1213",
        "Satellite Number": 1213,
        "Semi-Major Axis(m)": 7083131.272910544,
        "Time(s)": 103
    },
    {
        "Altitude(m)": 705289.357102683,
        "Argument of Periapsis(deg)": 0.006234592649522184,
        "Eccentricity": 0.0,
        "Inclination(deg)": 45.0,
        "Latitude(deg)": 35.72750575518061,
        "Longitude(deg)": -139.73057660800404,
        "Mean Anomaly(deg)": 55.40381858598951,
        "RAAN(deg)": 274.99411472678077,
        "Satellite Name": "Constellation 1 1213",
        "Satellite Number": 1213,
        "Semi-Major Axis(m)": 7083131.272910544,
        "Time(s)": 104
    },
    {
        "Altitude(m)": 705295.2572649835,
        "Argument of Periapsis(deg)": 0.00629454065576759,
        "Eccentricity": 0.0,
        "Inclination(deg)": 45.0,
        "Latitude(deg)": 35.757590551562934,
        "Longitude(deg)": -139.66976095218303,
        "Mean Anomaly(deg)": 55.4645197262394,
        "RAAN(deg)": 274.9940581376152,
        "Satellite Name": "Constellation 1 1213",
        "Satellite Number": 1213,
        "Semi-Major Axis(m)": 7083131.272910544,
        "Time(s)": 105
    },
    {
        "Altitude(m)": 705301.154953039,
        "Argument of Periapsis(deg)": 0.006354488662012995,
        "Eccentricity": 0.0,
        "Inclination(deg)": 45.0,
        "Latitude(deg)": 35.787640139378944,
        "Longitude(deg)": -139.60889646112358,
        "Mean Anomaly(deg)": 55.525220866489285,
        "RAAN(deg)": 274.99400154844966,
        "Satellite Name": "Constellation 1 1213",
        "Satellite Number": 1213,
        "Semi-Major Axis(m)": 7083131.272910544,
        "Time(s)": 106
    },
    {
        "Altitude(m)": 705307.0501296163,
        "Argument of Periapsis(deg)": 0.006414436668258401,
        "Eccentricity": 0.0,
        "Inclination(deg)": 45.0,
        "Latitude(deg)": 35.817654453997626,
        "Longitude(deg)": -139.54798310121956,
        "Mean Anomaly(deg)": 55.585922006739224,
        "RAAN(deg)": 274.9939449592841,
        "Satellite Name": "Constellation 1 1213",
        "Satellite Number": 1213,
        "Semi-Major Axis(m)": 7083131.272910544,
        "Time(s)": 107
    },
    {
        "Altitude(m)": 705312.9427575066,
        "Argument of Periapsis(deg)": 0.0064743846745038075,
        "Eccentricity": 0.0,
        "Inclination(deg)": 45.0,
        "Latitude(deg)": 35.84763343072941,
        "Longitude(deg)": -139.48702083909922,
        "Mean Anomaly(deg)": 55.64662314698911,
        "RAAN(deg)": 274.9938883701185,
        "Satellite Name": "Constellation 1 1213",
        "Satellite Number": 1213,
        "Semi-Major Axis(m)": 7083131.272910544,
        "Time(s)": 108
    },
    {
        "Altitude(m)": 705318.8327995418,
        "Argument of Periapsis(deg)": 0.0065343326807492125,
        "Eccentricity": 0.0,
        "Inclination(deg)": 45.0,
        "Latitude(deg)": 35.8775770048263,
        "Longitude(deg)": -139.42600964162645,
        "Mean Anomaly(deg)": 55.707324287239004,
        "RAAN(deg)": 274.9938317809529,
        "Satellite Name": "Constellation 1 1213",
        "Satellite Number": 1213,
        "Semi-Major Axis(m)": 7083131.272910544,
        "Time(s)": 109
    },
    {
        "Altitude(m)": 705324.7202185716,
        "Argument of Periapsis(deg)": 0.0065942806869946176,
        "Eccentricity": 0.0,
        "Inclination(deg)": 45.0,
        "Latitude(deg)": 35.90748511148233,
        "Longitude(deg)": -139.36494947590214,
        "Mean Anomaly(deg)": 55.768025427488936,
        "RAAN(deg)": 274.99377519178734,
        "Satellite Name": "Constellation 1 1213",
        "Satellite Number": 1213,
        "Semi-Major Axis(m)": 7083131.272910544,
        "Time(s)": 110
    },
    {
        "Altitude(m)": 705330.6049774797,
        "Argument of Periapsis(deg)": 0.006654228693240024,
        "Eccentricity": 0.0,
        "Inclination(deg)": 45.0,
        "Latitude(deg)": 35.937357685833675,
        "Longitude(deg)": -139.3038404773626,
        "Mean Anomaly(deg)": 55.82872656773882,
        "RAAN(deg)": 274.9937186026218,
        "Satellite Name": "Constellation 1 1213",
        "Satellite Number": 1213,
        "Semi-Major Axis(m)": 7083131.272910544,
        "Time(s)": 111
    },
    {
        "Altitude(m)": 705336.4870391774,
        "Argument of Periapsis(deg)": 0.006714176699485429,
        "Eccentricity": 0.0,
        "Inclination(deg)": 45.0,
        "Latitude(deg)": 35.96719466295833,
        "Longitude(deg)": -139.24268227739256,
        "Mean Anomaly(deg)": 55.88942770798871,
        "RAAN(deg)": 274.99366201345623,
        "Satellite Name": "Constellation 1 1213",
        "Satellite Number": 1213,
        "Semi-Major Axis(m)": 7083131.272910544,
        "Time(s)": 112
    },
    {
        "Altitude(m)": 705342.3663666042,
        "Argument of Periapsis(deg)": 0.006774124705730835,
        "Eccentricity": 0.0,
        "Inclination(deg)": 45.0,
        "Latitude(deg)": 35.99699597787755,
        "Longitude(deg)": -139.18147501190884,
        "Mean Anomaly(deg)": 55.95012884823859,
        "RAAN(deg)": 274.99360542429065,
        "Satellite Name": "Constellation 1 1213",
        "Satellite Number": 1213,
        "Semi-Major Axis(m)": 7083131.272910544,
        "Time(s)": 113
    }
]